QIANFAN-1               
1 60379U 24140A   25248.55703230  .00000121  00000+0  16815-3 0  9999
2 60379  88.9808 309.4492 0019345 134.8411 225.4316 13.50962769 54092
QIANFAN-2               
1 60380U 24140B   25248.58566371  .00000120  00000+0  16668-3 0  9992
2 60380  88.9795 309.2992 0015011 109.7013 250.5759 13.50963141 54159
QIANFAN-3               
1 60381U 24140C   25248.59394390  .00000127  00000+0  17782-3 0  9999
2 60381  88.9787 309.4382 0016032 120.6699 239.6035 13.50963268 54067
QIANFAN-4               
1 60382U 24140D   25248.56936718  .00000132  00000+0  18490-3 0  9996
2 60382  88.9812 309.3139 0015226 112.0165 248.2606 13.50962823 54182
QIANFAN-5               
1 60383U 24140E   25248.54464537  .00000118  00000+0  16402-3 0  9995
2 60383  88.9787 309.4691 0017113 130.8828 229.3809 13.50966126 54049
QIANFAN-6               
1 60384U 24140F   25248.56520707  .00000121  00000+0  16789-3 0  9992
2 60384  88.9813 309.1870 0015289 117.1046 243.1667 13.50962303 54249
QIANFAN-7               
1 60385U 24140G   25248.61425847  .00000813  00000+0  32447-3 0  9995
2 60385  88.9812 305.2590 0014989  13.6069 346.5526 14.27539152 56393
QIANFAN-8               
1 60386U 24140H   25248.57344128  .00000127  00000+0  17829-3 0  9998
2 60386  88.9815 309.4219 0018714 119.4810 240.8211 13.50966238 54096
